OBJECT_NAME,OBJECT_ID,EPOCH,MEAN_MOTION,ECCENTRICITY,INCLINATION,RA_OF_ASC_NODE,ARG_OF_PERICENTER,MEAN_ANOMALY,EPHEMERIS_TYPE,CLASSIFICATION_TYPE,NORAD_CAT_ID,ELEMENT_SET_NO,REV_AT_EPOCH,BSTAR,MEAN_MOTION_DOT,MEAN_MOTION_DDOT
LEMUR-2-CELIJO-SB-PK,2025-276DW,2026-06-06T10:18:11.373120,14.99845445,.00088315,97.5276,228.5585,158.5528,201.6068,0,U,66781,999,2101,.73136016E-3,.9014E-4,0
LEMUR-2-FINNIAN,2025-276DX,2026-06-06T22:37:30.754848,15.00247940,.00084288,97.5258,229.2619,120.5386,239.6671,0,U,66782,999,1846,.63699853E-3,.7925E-4,0
LEMUR-2-STARLIGHT,2025-276DY,2026-06-06T03:44:11.116608,14.98925272,.00152349,97.5273,228.1699,159.8654,200.3173,0,U,66783,999,2854,.71867317E-3,.866E-4,0
LEMUR-2-TARTIFLETTE,2025-276DZ,2026-06-06T10:06:47.498112,14.98949627,.00138965,97.5274,228.4322,165.1491,195.0143,0,U,66784,999,2858,.85100158E-3,.1027E-3,0
LEMUR-2-VUKASIN,2025-276EA,2026-06-06T10:11:02.099040,15.00246779,.00062744,97.5301,228.7061,149.6616,210.4972,0,U,66785,999,2853,.72158694E-3,.8984E-4,0
LEMUR-2-HOTSPUR-TOM,2025-276EB,2026-06-06T03:30:18.844416,14.98820107,.00151547,97.5241,228.1517,161.7221,198.4550,0,U,66786,999,2847,.79560754E-3,.9568E-4,0
LEMUR-2-MYRA,2025-276EC,2026-06-06T10:54:55.456128,15.00100506,.00152999,97.5219,228.6895,177.2463,182.8848,0,U,66787,999,2860,.7117671E-3,.8844E-4,0
LEMUR-2 FIKRETDENGIZ,2026-004A,2026-06-06T13:53:26.398464,14.88248907,.00091215,97.8016,156.3010,164.3226,195.8275,0,U,67363,999,2170,.49084206E-3,.4482E-4,0
TWILIGHT-1 OBJECT B,2026-004B,2026-06-06T17:36:11.231712,14.87666521,.00092513,97.8060,156.4725,154.9113,205.2555,0,U,67364,999,2173,.2732257E-3,.2434E-4,0
LEMUR-2-MARIO-SOUSA,2026-004C,2026-06-06T13:31:44.760000,14.88430646,.00087678,97.7994,156.2825,164.4177,195.7311,0,U,67365,999,2171,.56852486E-3,.5224E-4,0
LEMUR-2-SONNENBLUME,2026-004E,2026-06-06T11:50:44.065248,14.88262544,.0008345,97.7982,156.2017,166.5825,193.5615,0,U,67367,999,2170,.36987E-3,.3364E-4,0
LEMUR-2-WOBLER,2026-004F,2026-06-06T18:10:33.874464,14.88446860,.00087652,97.8043,156.5734,155.1762,204.9878,0,U,67368,999,2174,.55033465E-3,.5057E-4,0
LEMUR-2-GRAM-E-SUE,2026-004H,2026-06-06T13:06:20.279520,14.88424897,.0007274,97.7974,156.2680,166.7193,193.4216,0,U,67370,999,2171,.36097179E-3,.3295E-4,0
LEMUR-2-KATIE,2026-004AA,2026-06-06T13:04:07.368672,14.89975711,.00046922,97.8036,156.6916,114.9965,245.1741,0,U,67387,999,2172,.65456862E-3,.6257E-4,0
LEMUR-2-HCS-BAZUS,2026-004AB,2026-06-06T13:02:49.981920,14.89970235,.0004309,97.8027,156.6727,110.1340,250.0342,0,U,67388,999,2172,.72140096E-3,.6901E-4,0
